start=new Date('2022-09-11T00:00:00.000Z').valueOf();
sats=[{"MEAN_ELEMENT_THEORY":"SGP4","RCS_SIZE":"LARGE","ECCENTRICITY":"0.00015840","EPHEMERIS_TYPE":"0","PERIAPSIS":"538.609","FILE":"3567798","SEMIMAJOR_AXIS":"6917.840","EPOCH":"2022-09-10T22:00:00.999936","OBJECT_NAME":"STARLINK-3574","RA_OF_ASC_NODE":"336.2847","COUNTRY_CODE":"US","MEAN_ANOMALY":"68.2619","MEAN_MOTION":"15.08853188","BSTAR":"-0.00429680000000","PERIOD":"95.437","CENTER_NAME":"EARTH","REV_AT_EPOCH":"130","TLE_LINE1":"1 51874U 22022Y   22253.91667824 -.00068051  00000-0 -42968-2 0  9993","NORAD_CAT_ID":"51874","LAUNCH_DATE":"2022-03-03","GP_ID":"212270634","ARG_OF_PERICENTER":"59.5985","MEAN_MOTION_DDOT":"0.0000000000000","OBJECT_ID":"2022-022Y","SITE":"AFETR","CLASSIFICATION_TYPE":"U","TLE_LINE2":"2 51874  53.2179 336.2847 0001584  59.5985  68.2619 15.08853188  1309","TIME_SYSTEM":"UTC","REF_FRAME":"TEME","DECAY_DATE":null,"APOAPSIS":"540.801","ELEMENT_SET_NO":"999","INCLINATION":"53.2179","MEAN_MOTION_DOT":"-0.00068051","OBJECT_TYPE":"PAYLOAD"},{"MEAN_MOTION_DDOT":"0.0000000000000","GP_ID":"212270886","ARG_OF_PERICENTER":"55.2409","LAUNCH_DATE":"2022-03-03","CLASSIFICATION_TYPE":"U","OBJECT_ID":"2022-022Z","SITE":"AFETR","REF_FRAME":"TEME","TLE_LINE2":"2 51875  53.2194 336.2862 0001493  55.2409 147.4011 15.08849475  1307","TIME_SYSTEM":"UTC","DECAY_DATE":null,"ELEMENT_SET_NO":"999","APOAPSIS":"540.749","MEAN_MOTION_DOT":"-0.00068665","INCLINATION":"53.2194","OBJECT_TYPE":"PAYLOAD","ECCENTRICITY":"0.00014930","RCS_SIZE":"LARGE","MEAN_ELEMENT_THEORY":"SGP4","EPHEMERIS_TYPE":"0","FILE":"3567798","PERIAPSIS":"538.684","EPOCH":"2022-09-10T22:00:00.999936","SEMIMAJOR_AXIS":"6917.851","MEAN_MOTION":"15.08849475","COUNTRY_CODE":"US","MEAN_ANOMALY":"147.4011","OBJECT_NAME":"STARLINK-3585","RA_OF_ASC_NODE":"336.2862","TLE_LINE1":"1 51875U 22022Z   22253.91667824 -.00068665  00000-0 -43366-2 0  9998","REV_AT_EPOCH":"130","CENTER_NAME":"EARTH","PERIOD":"95.437","BSTAR":"-0.00433660000000","NORAD_CAT_ID":"51875"},{"EPOCH":"2022-09-10T22:00:00.999936","SEMIMAJOR_AXIS":"6917.811","FILE":"3567798","PERIAPSIS":"538.519","EPHEMERIS_TYPE":"0","ECCENTRICITY":"0.00016720","MEAN_ELEMENT_THEORY":"SGP4","RCS_SIZE":"LARGE","NORAD_CAT_ID":"51876","TLE_LINE1":"1 51876U 22022AA  22253.91667824 -.00081527  00000-0 -51597-2 0  9996","REV_AT_EPOCH":"130","CENTER_NAME":"EARTH","BSTAR":"-0.00515970000000","PERIOD":"95.436","MEAN_MOTION":"15.08862726","COUNTRY_CODE":"US","MEAN_ANOMALY":"100.4831","OBJECT_NAME":"STARLINK-3583","RA_OF_ASC_NODE":"336.2784","REF_FRAME":"TEME","TLE_LINE2":"2 51876  53.2172 336.2784 0001672  47.3439 100.4831 15.08862726  1304","TIME_SYSTEM":"UTC","CLASSIFICATION_TYPE":"U","OBJECT_ID":"2022-022AA","SITE":"AFETR","MEAN_MOTION_DDOT":"0.0000000000000","GP_ID":"212271137","ARG_OF_PERICENTER":"47.3439","LAUNCH_DATE":"2022-03-03","OBJECT_TYPE":"PAYLOAD","MEAN_MOTION_DOT":"-0.00081527","INCLINATION":"53.2172","ELEMENT_SET_NO":"999","APOAPSIS":"540.833","DECAY_DATE":null},{"GP_ID":"212269885","ARG_OF_PERICENTER":"57.2467","MEAN_MOTION_DDOT":"0.0000000000000","LAUNCH_DATE":"2022-03-03","TIME_SYSTEM":"UTC","TLE_LINE2":"2 51877  53.2173 326.2857 0001387  57.2467 185.6144 15.08829051  1306","REF_FRAME":"TEME","CLASSIFICATION_TYPE":"U","OBJECT_ID":"2022-022AB","SITE":"AFETR","APOAPSIS":"540.738","ELEMENT_SET_NO":"999","DECAY_DATE":null,"OBJECT_TYPE":"PAYLOAD","INCLINATION":"53.2173","MEAN_MOTION_DOT":"-0.00015270","EPHEMERIS_TYPE":"0","ECCENTRICITY":"0.00013870","MEAN_ELEMENT_THEORY":"SGP4","RCS_SIZE":"LARGE","SEMIMAJOR_AXIS":"6917.914","EPOCH":"2022-09-10T22:00:00.999936","FILE":"3567798","PERIAPSIS":"538.819","MEAN_MOTION":"15.08829051","OBJECT_NAME":"STARLINK-3556","RA_OF_ASC_NODE":"326.2857","MEAN_ANOMALY":"185.6144","COUNTRY_CODE":"US","NORAD_CAT_ID":"51877","CENTER_NAME":"EARTH","TLE_LINE1":"1 51877U 22022AB  22253.91667824 -.00015270  00000-0 -94364-3 0  9999","REV_AT_EPOCH":"130","BSTAR":"-0.00094364000000","PERIOD":"95.438"},{"COUNTRY_CODE":"US","MEAN_ANOMALY":"131.7689","RA_OF_ASC_NODE":"336.2855","OBJECT_NAME":"STARLINK-3575","MEAN_MOTION":"15.08844599","NORAD_CAT_ID":"51878","PERIOD":"95.437","BSTAR":"-0.00349330000000","REV_AT_EPOCH":"130","TLE_LINE1":"1 51878U 22022AC  22253.91667824 -.00055463  00000-0 -34933-2 0  9993","CENTER_NAME":"EARTH","EPHEMERIS_TYPE":"0","RCS_SIZE":"LARGE","MEAN_ELEMENT_THEORY":"SGP4","ECCENTRICITY":"0.00014930","EPOCH":"2022-09-10T22:00:00.999936","SEMIMAJOR_AXIS":"6917.866","PERIAPSIS":"538.698","FILE":"3567798","ELEMENT_SET_NO":"999","APOAPSIS":"540.764","DECAY_DATE":null,"OBJECT_TYPE":"PAYLOAD","MEAN_MOTION_DOT":"-0.00055463","INCLINATION":"53.2189","LAUNCH_DATE":"2022-03-03","MEAN_MOTION_DDOT":"0.0000000000000","GP_ID":"212270135","ARG_OF_PERICENTER":"56.0937","REF_FRAME":"TEME","TIME_SYSTEM":"UTC","TLE_LINE2":"2 51878  53.2189 336.2855 0001493  56.0937 131.7689 15.08844599  1300","OBJECT_ID":"2022-022AC","SITE":"AFETR","CLASSIFICATION_TYPE":"U"},{"GP_ID":"212271386","ARG_OF_PERICENTER":"51.9554","MEAN_MOTION_DDOT":"0.0000000000000","LAUNCH_DATE":"2022-03-03","TLE_LINE2":"2 51879  53.2169 326.2867 0001408  51.9554 230.9203 15.08847572  1304","TIME_SYSTEM":"UTC","REF_FRAME":"TEME","CLASSIFICATION_TYPE":"U","SITE":"AFETR","OBJECT_ID":"2022-022AD","APOAPSIS":"540.696","ELEMENT_SET_NO":"999","DECAY_DATE":null,"OBJECT_TYPE":"PAYLOAD","INCLINATION":"53.2169","MEAN_MOTION_DOT":"-0.00065557","EPHEMERIS_TYPE":"0","ECCENTRICITY":"0.00014080","RCS_SIZE":"LARGE","MEAN_ELEMENT_THEORY":"SGP4","SEMIMAJOR_AXIS":"6917.857","EPOCH":"2022-09-10T22:00:00.999936","FILE":"3567798","PERIAPSIS":"538.748","MEAN_MOTION":"15.08847572","OBJECT_NAME":"STARLINK-3572","RA_OF_ASC_NODE":"326.2867","COUNTRY_CODE":"US","MEAN_ANOMALY":"230.9203","NORAD_CAT_ID":"51879","CENTER_NAME":"EARTH","REV_AT_EPOCH":"130","TLE_LINE1":"1 51879U 22022AD  22253.91667824 -.00065557  00000-0 -41379-2 0  9991","BSTAR":"-0.00413790000000","PERIOD":"95.437"},{"FILE":"3567798","PERIAPSIS":"538.869","SEMIMAJOR_AXIS":"6917.886","EPOCH":"2022-09-10T22:00:00.999936","ECCENTRICITY":"0.00012750","MEAN_ELEMENT_THEORY":"SGP4","RCS_SIZE":"LARGE","EPHEMERIS_TYPE":"0","CENTER_NAME":"EARTH","TLE_LINE1":"1 51880U 22022AE  22253.91667824 -.00003586  00000-0 -20736-3 0  9992","REV_AT_EPOCH":"130","PERIOD":"95.438","BSTAR":"-0.00020736000000","NORAD_CAT_ID":"51880","MEAN_MOTION":"15.08838146","OBJECT_NAME":"STARLINK-3566","RA_OF_ASC_NODE":"336.2814","COUNTRY_CODE":"US","MEAN_ANOMALY":"329.5931","CLASSIFICATION_TYPE":"U","OBJECT_ID":"2022-022AE","SITE":"AFETR","TLE_LINE2":"2 51880  53.2174 336.2814 0001275  53.0378 329.5931 15.08838146  1304","TIME_SYSTEM":"UTC","REF_FRAME":"TEME","GP_ID":"212271637","ARG_OF_PERICENTER":"53.0378","MEAN_MOTION_DDOT":"0.0000000000000","LAUNCH_DATE":"2022-03-03","INCLINATION":"53.2174","MEAN_MOTION_DOT":"-0.00003586","OBJECT_TYPE":"PAYLOAD","DECAY_DATE":null,"APOAPSIS":"540.633","ELEMENT_SET_NO":"999"},{"MEAN_ELEMENT_THEORY":"SGP4","RCS_SIZE":"LARGE","ECCENTRICITY":"0.00013640","EPHEMERIS_TYPE":"0","PERIAPSIS":"538.812","FILE":"3567798","SEMIMAJOR_AXIS":"6917.891","EPOCH":"2022-09-10T22:00:00.999936","RA_OF_ASC_NODE":"326.2930","OBJECT_NAME":"STARLINK-3504","COUNTRY_CODE":"US","MEAN_ANOMALY":"266.1898","MEAN_MOTION":"15.08836561","PERIOD":"95.438","BSTAR":"-0.00097323000000","CENTER_NAME":"EARTH","TLE_LINE1":"1 51881U 22022AF  22253.91667824 -.00015742  00000-0 -97323-3 0  9996","REV_AT_EPOCH":"130","NORAD_CAT_ID":"51881","LAUNCH_DATE":"2022-03-03","GP_ID":"212270385","ARG_OF_PERICENTER":"56.6814","MEAN_MOTION_DDOT":"0.0000000000000","SITE":"AFETR","OBJECT_ID":"2022-022AF","CLASSIFICATION_TYPE":"U","TIME_SYSTEM":"UTC","TLE_LINE2":"2 51881  53.2167 326.2930 0001364  56.6814 266.1898 15.08836561  1305","REF_FRAME":"TEME","DECAY_DATE":null,"APOAPSIS":"540.700","ELEMENT_SET_NO":"999","INCLINATION":"53.2167","MEAN_MOTION_DOT":"-0.00015742","OBJECT_TYPE":"PAYLOAD"},{"FILE":"3567798","PERIAPSIS":"538.676","EPOCH":"2022-09-10T22:00:00.999936","SEMIMAJOR_AXIS":"6917.885","ECCENTRICITY":"0.00015520","MEAN_ELEMENT_THEORY":"SGP4","RCS_SIZE":"LARGE","EPHEMERIS_TYPE":"0","REV_AT_EPOCH":"130","TLE_LINE1":"1 51882U 22022AG  22253.91667824 -.00003958  00000-0 -23071-3 0  9992","CENTER_NAME":"EARTH","PERIOD":"95.438","BSTAR":"-0.00023071000000","NORAD_CAT_ID":"51882","MEAN_MOTION":"15.08838587","MEAN_ANOMALY":"222.3106","COUNTRY_CODE":"US","RA_OF_ASC_NODE":"326.2813","OBJECT_NAME":"STARLINK-3570","CLASSIFICATION_TYPE":"U","OBJECT_ID":"2022-022AG","SITE":"AFETR","REF_FRAME":"TEME","TLE_LINE2":"2 51882  53.2175 326.2813 0001552  40.5201 222.3106 15.08838587  1302","TIME_SYSTEM":"UTC","MEAN_MOTION_DDOT":"0.0000000000000","ARG_OF_PERICENTER":"40.5201","GP_ID":"212270635","LAUNCH_DATE":"2022-03-03","MEAN_MOTION_DOT":"-0.00003958","INCLINATION":"53.2175","OBJECT_TYPE":"PAYLOAD","DECAY_DATE":null,"ELEMENT_SET_NO":"999","APOAPSIS":"540.823"},{"EPHEMERIS_TYPE":"0","ECCENTRICITY":"0.00016750","MEAN_ELEMENT_THEORY":"SGP4","RCS_SIZE":"LARGE","SEMIMAJOR_AXIS":"6917.898","EPOCH":"2022-09-10T22:00:00.999936","FILE":"3567798","PERIAPSIS":"538.605","MEAN_MOTION":"15.08834094","OBJECT_NAME":"STARLINK-3576","RA_OF_ASC_NODE":"326.2992","MEAN_ANOMALY":"311.0885","COUNTRY_CODE":"US","NORAD_CAT_ID":"51883","CENTER_NAME":"EARTH","REV_AT_EPOCH":"130","TLE_LINE1":"1 51883U 22022AH  22253.91667824 -.00015266  00000-0 -94326-3 0  9999","PERIOD":"95.438","BSTAR":"-0.00094326000000","GP_ID":"212270887","ARG_OF_PERICENTER":"46.5959","MEAN_MOTION_DDOT":"0.0000000000000","LAUNCH_DATE":"2022-03-03","TLE_LINE2":"2 51883  53.2160 326.2992 0001675  46.5959 311.0885 15.08834094  1306","TIME_SYSTEM":"UTC","REF_FRAME":"TEME","CLASSIFICATION_TYPE":"U","SITE":"AFETR","OBJECT_ID":"2022-022AH","APOAPSIS":"540.922","ELEMENT_SET_NO":"999","DECAY_DATE":null,"OBJECT_TYPE":"PAYLOAD","INCLINATION":"53.2160","MEAN_MOTION_DOT":"-0.00015266"}];
